OBJECT_NAME,OBJECT_ID,EPOCH,MEAN_MOTION,ECCENTRICITY,INCLINATION,RA_OF_ASC_NODE,ARG_OF_PERICENTER,MEAN_ANOMALY,EPHEMERIS_TYPE,CLASSIFICATION_TYPE,NORAD_CAT_ID,ELEMENT_SET_NO,REV_AT_EPOCH,BSTAR,MEAN_MOTION_DOT,MEAN_MOTION_DDOT
INTELSAT 906 (IS-906),2002-041A,2026-06-14T04:52:21.418752,1.00272354,.0004639,5.7955,72.9589,3.9186,322.8531,0,U,27513,999,8699,0,.17E-6,0
NIMIQ 2,2002-062A,2026-06-14T09:36:14.943744,1.00271664,.0005399,9.4397,56.9287,21.8454,218.7935,0,U,27632,999,4415,0,-.7E-6,0
USA 167,2003-008A,2026-06-14T08:26:37.503744,1.00273190,.00039,10.9556,43.4344,310.8386,273.3349,0,U,27691,999,674,0,.2E-7,0
USA 169 (MILSTAR-2 4),2003-012A,2026-06-14T10:24:25.973280,1.00273351,.0100564,12.3452,29.8644,9.0696,172.0390,0,U,27711,999,3292,0,-.243E-5,0
ASIASAT 4,2003-014A,2026-06-14T12:05:51.113184,1.00270932,.0002991,4.6977,75.7812,12.3095,143.7192,0,U,27718,999,4527,0,-.219E-5,0
HELLAS-SAT 2,2003-020A,2026-06-13T23:22:17.048352,1.00271030,.00023741,7.3467,67.9221,19.5581,155.3544,0,U,27811,999,4281,0,-.81E-6,0
THURAYA-2,2003-026A,2026-06-14T06:28:16.882176,1.00272844,.0003094,8.8362,31.9913,9.7613,1.8874,0,U,27825,999,8432,0,.125E-5,0
OPTUS C1,2003-028B,2026-06-14T12:23:38.796864,1.00272556,.0005446,6.8830,69.4418,10.8655,164.1579,0,U,27831,999,5303,0,-.15E-5,0
USA 170,2003-040A,2026-06-13T21:54:11.772000,1.00267884,.0001881,10.4940,47.9796,61.5766,145.5156,0,U,27875,999,3296,0,.126E-5,0
GALAXY 13 (HORIZONS-1),2003-044A,2026-06-14T11:02:38.553216,1.00269797,.0002302,1.4126,83.8992,349.0479,205.4691,0,U,27954,999,4654,0,.139E-5,0
YAMAL 202,2003-053A,2026-06-14T13:00:38.636640,1.00271409,.0003329,6.3363,70.9695,4.6290,185.9853,0,U,28089,999,8267,0,-.78E-6,0
UFO 11 (USA 174),2003-057A,2026-06-14T03:02:21.600096,1.00274485,.00026411,8.9324,33.8445,52.1453,297.6344,0,U,28117,999,8241,0,-.104E-5,0
USA 176 (DSP 22),2004-004A,2026-06-11T23:21:41.975136,1.00406369,.0001239,12.0550,26.1076,290.9902,243.8917,0,U,28158,999,3288,0,-.286E-5,0
ABS-4 (MOBISAT-1),2004-007A,2026-06-14T04:57:21.688128,1.00272806,.00051891,6.0345,72.0444,9.1837,316.5810,0,U,28184,999,5230,0,.42E-6,0
INTELSAT 10-02,2004-022A,2026-06-14T09:40:50.807712,1.00269700,.0000193,0.0108,324.0878,256.5276,186.2869,0,U,28358,999,8052,0,-.4E-7,0
ANIK F2,2004-027A,2026-06-14T12:01:38.470944,1.00271308,.0003993,3.2801,79.4822,6.9388,245.6603,0,U,28378,999,4123,0,-.45E-6,0
AMC-15,2004-041A,2026-06-14T11:45:38.585088,1.00271448,.0002095,0.0187,330.0587,124.7516,239.3508,0,U,28446,999,7927,0,-.81E-6,0
NSS-10,2005-003A,2026-06-14T02:39:46.059264,1.00270897,.00026568,6.4417,70.4904,2.3381,192.0841,0,U,28526,999,5312,0,-.248E-5,0
INMARSAT 4-F1,2005-009A,2026-06-14T10:31:55.255008,1.00271419,.0002439,5.1643,42.7535,41.9574,154.1284,0,U,28628,999,7764,0,.36E-6,0
DIRECTV 8,2005-019A,2026-06-14T10:49:49.148256,1.00270501,.0002757,0.0131,297.3389,148.5232,220.2884,0,U,28659,999,7704,0,.9E-7,0
GALAXY 28 (G-28),2005-022A,2026-06-14T09:33:21.525984,1.00271143,.000287,3.2917,78.9679,3.2245,296.7451,0,U,28702,999,5194,0,-.195E-5,0
THAICOM 4,2005-028A,2026-06-14T12:16:22.276416,1.00270794,.0001597,0.2388,85.9340,347.4714,133.0003,0,U,28786,999,5222,0,-.355E-5,0
ANIK F1R,2005-036A,2026-06-14T12:01:38.470944,1.00270601,.0004009,4.3058,76.6119,359.3899,259.9263,0,U,28868,999,4642,0,-.71E-6,0
SYRACUSE 3A,2005-041B,2026-06-14T09:54:27.005184,1.00273878,.0003007,4.6359,75.8730,347.8968,34.2121,0,U,28885,999,7572,0,.133E-5,0
INMARSAT 4-F2,2005-044A,2026-06-14T12:04:43.721184,1.00270608,.0002805,5.0910,43.6991,33.9805,149.7966,0,U,28899,999,7549,0,-.258E-5,0
METEOSAT-9 (MSG-2),2005-049B,2026-06-13T20:12:48.957984,1.00270562,.00015434,9.3538,54.2002,346.3460,210.4526,0,U,28912,999,696,0,.126E-5,0
EUTELSAT 174A,2005-052A,2026-06-14T12:13:20.394048,1.00270581,.0006111,4.2128,76.5598,6.6342,176.9066,0,U,28924,999,5230,0,.12E-6,0
ECHOSTAR 10,2006-003A,2026-06-14T12:09:38.892096,1.00270531,.0001447,0.0170,348.0646,69.5618,277.3985,0,U,28935,999,7443,0,-.48E-6,0
SPAINSAT,2006-007A,2026-06-14T08:30:17.108352,1.00270330,.0004622,0.5559,86.5750,355.4696,278.0102,0,U,28945,999,7418,0,-.209E-5,0
JCSAT-5A,2006-010A,2026-06-14T12:31:38.754912,1.00270173,.0001865,1.1026,84.2448,17.6522,120.8745,0,U,29045,999,7374,0,-.321E-5,0
ASTRA 1KR,2006-012A,2026-06-14T08:03:53.638272,1.00270114,.0003256,0.4665,83.1994,354.8844,324.5037,0,U,29055,999,4566,0,.126E-5,0
GALAXY 16 (G-16),2006-023A,2026-06-14T10:55:33.598272,1.00270276,.0002408,0.0152,281.3519,173.4081,232.8774,0,U,29236,999,7294,0,-.119E-5,0
