INTELSAT 906 (IS-906)   
1 27513U 02041A   26165.20302568  .00000017  00000+0  00000+0 0  9997
2 27513   5.7955  72.9589 0004639   3.9186 322.8531  1.00272354 86990
NIMIQ 2                 
1 27632U 02062A   26165.40017296 -.00000070  00000+0  00000+0 0  9995
2 27632   9.4397  56.9287 0005399  21.8454 218.7935  1.00271664 44157
USA 167                 
1 27691U 03008A   26165.35182296  .00000002  00000+0  00000+0 0  9992
2 27691  10.9556  43.4344 0003900 310.8386 273.3349  1.00273190  6747
USA 169 (MILSTAR-2 4)   
1 27711U 03012A   26165.43363395 -.00000243  00000+0  00000+0 0  9998
2 27711  12.3452  29.8644 0100564   9.0696 172.0390  1.00273351 32926
ASIASAT 4               
1 27718U 03014A   26165.50406381 -.00000219  00000+0  00000+0 0  9991
2 27718   4.6977  75.7812 0002991  12.3095 143.7192  1.00270932 45270
HELLAS-SAT 2            
1 27811U 03020A   26164.97380843 -.00000081  00000+0  00000+0 0  9993
2 27811   7.3467  67.9221 0002374  19.5581 155.3544  1.00271030 42816
THURAYA-2               
1 27825U 03026A   26165.26963984  .00000125  00000+0  00000+0 0  9998
2 27825   8.8362  31.9913 0003094   9.7613   1.8874  1.00272844 84324
OPTUS C1                
1 27831U 03028B   26165.51642126 -.00000150  00000+0  00000+0 0  9996
2 27831   6.8830  69.4418 0005446  10.8655 164.1579  1.00272556 53036
USA 170                 
1 27875U 03040A   26164.91263625  .00000126  00000+0  00000+0 0  9996
2 27875  10.4940  47.9796 0001881  61.5766 145.5156  1.00267884 32963
GALAXY 13 (HORIZONS-1)  
1 27954U 03044A   26165.46016844  .00000139  00000+0  00000+0 0  9992
2 27954   1.4126  83.8992 0002302 349.0479 205.4691  1.00269797 46542
YAMAL 202               
1 28089U 03053A   26165.54211385 -.00000078  00000+0  00000+0 0  9991
2 28089   6.3363  70.9695 0003329   4.6290 185.9853  1.00271409 82670
UFO 11 (USA 174)        
1 28117U 03057A   26165.12663889 -.00000104  00000+0  00000+0 0  9991
2 28117   8.9324  33.8445 0002641  52.1453 297.6344  1.00274485 82418
USA 176 (DSP 22)        
1 28158U 04004A   26162.97340249 -.00000286  00000+0  00000+0 0  9992
2 28158  12.0550  26.1076 0001239 290.9902 243.8917  1.00406369 32881
ABS-4 (MOBISAT-1)       
1 28184U 04007A   26165.20650102  .00000042  00000+0  00000+0 0  9994
2 28184   6.0345  72.0444 0005189   9.1837 316.5810  1.00272806 52305
INTELSAT 10-02          
1 28358U 04022A   26165.40336583 -.00000004  00000+0  00000+0 0  9999
2 28358   0.0108 324.0878 0000193 256.5276 186.2869  1.00269700 80525
ANIK F2                 
1 28378U 04027A   26165.50113971 -.00000045  00000+0  00000+0 0  9996
2 28378   3.2801  79.4822 0003993   6.9388 245.6603  1.00271308 41232
AMC-15                  
1 28446U 04041A   26165.49002992 -.00000081  00000+0  00000+0 0  9996
2 28446   0.0187 330.0587 0002095 124.7516 239.3508  1.00271448 79272
NSS-10                  
1 28526U 05003A   26165.11094976 -.00000248  00000+0  00000+0 0  9991
2 28526   6.4417  70.4904 0002656   2.3381 192.0841  1.00270897 53127
INMARSAT 4-F1           
1 28628U 05009A   26165.43883397  .00000036  00000+0  00000+0 0  9992
2 28628   5.1643  42.7535 0002439  41.9574 154.1284  1.00271419 77645
DIRECTV 8               
1 28659U 05019A   26165.45126329  .00000009  00000+0  00000+0 0  9994
2 28659   0.0131 297.3389 0002757 148.5232 220.2884  1.00270501 77044
GALAXY 28 (G-28)        
1 28702U 05022A   26165.39816581 -.00000195  00000+0  00000+0 0  9993
2 28702   3.2917  78.9679 0002870   3.2245 296.7451  1.00271143 51944
THAICOM 4               
1 28786U 05028A   26165.51136894 -.00000355  00000+0  00000+0 0  9995
2 28786   0.2388  85.9340 0001597 347.4714 133.0003  1.00270794 52226
ANIK F1R                
1 28868U 05036A   26165.50113971 -.00000071  00000+0  00000+0 0  9990
2 28868   4.3058  76.6119 0004009 359.3899 259.9263  1.00270601 46422
SYRACUSE 3A             
1 28885U 05041B   26165.41281256  .00000133  00000+0  00000+0 0  9995
2 28885   4.6359  75.8730 0003007 347.8968  34.2121  1.00273878 75725
INMARSAT 4-F2           
1 28899U 05044A   26165.50328381 -.00000258  00000+0  00000+0 0  9993
2 28899   5.0910  43.6991 0002805  33.9805 149.7966  1.00270608 75499
METEOSAT-9 (MSG-2)      
1 28912U 05049B   26164.84223331  .00000126  00000+0  00000+0 0  9992
2 28912   9.3538  54.2002 0001543 346.3460 210.4526  1.00270562  6968
EUTELSAT 174A           
1 28924U 05052A   26165.50926382  .00000012  00000+0  00000+0 0  9993
2 28924   4.2128  76.5598 0006111   6.6342 176.9066  1.00270581 52303
ECHOSTAR 10             
1 28935U 06003A   26165.50670014 -.00000048  00000+0  00000+0 0  9990
2 28935   0.0170 348.0646 0001447  69.5618 277.3985  1.00270531 74437
SPAINSAT                
1 28945U 06007A   26165.35436468 -.00000209  00000+0  00000+0 0  9990
2 28945   0.5559  86.5750 0004622 355.4696 278.0102  1.00270330 74183
JCSAT-5A                
1 29045U 06010A   26165.52197633 -.00000321  00000+0  00000+0 0  9998
2 29045   1.1026  84.2448 0001865  17.6522 120.8745  1.00270173 73744
ASTRA 1KR               
1 29055U 06012A   26165.33603748  .00000126  00000+0  00000+0 0  9991
2 29055   0.4665  83.1994 0003256 354.8844 324.5037  1.00270114 45661
GALAXY 16 (G-16)        
1 29236U 06023A   26165.45524998 -.00000119  00000+0  00000+0 0  9999
2 29236   0.0152 281.3519 0002408 173.4081 232.8774  1.00270276 72949
